[Satellite]
VERSION=1.1
NAME=IRIDIUM 54 [+]
NICKNAME=IRIDIUM 54 [+]
TLE1=1 25171U 98010C   17186.01839712  .00000004  00000-0 -55632-5 0  9999
TLE2=2 25171  86.3958 342.9528 0002198  89.0856 271.0592 14.34211602 14506
